LEMUR-1                 
1 40044U 14033AL  26168.90027130  .00001660  00000+0  19560-3 0  9994
2 40044  97.7878 318.6894 0049661  76.3575 284.3163 14.85249228645577
LEMUR-2-GREENBERG       
1 42837U 17042N   26169.45925089  .00012937  00000+0  42899-3 0  9990
2 42837  97.3821 350.0774 0008394   9.3280 350.8115 15.31359663488586
LEMUR-2-ANDIS           
1 42838U 17042P   26169.48562928  .00016141  00000+0  47856-3 0  9992
2 42838  97.3677 350.2921 0008043   7.6302 352.5062 15.34885216488658
LEMUR-2-MONSON          
1 42839U 17042Q   26169.47078065  .00010699  00000+0  39358-3 0  9996
2 42839  97.4078 350.0593 0006064   1.3615 358.7640 15.28037934488364
LEMUR-2-FURIAUS         
1 42840U 17042R   26169.45393875  .00013947  00000+0  47784-3 0  9996
2 42840  97.3770 348.0240 0008107  65.3345 294.8739 15.30285769488408
LEMUR-2-PETERG          
1 42841U 17042S   26169.47058771  .00015959  00000+0  48822-3 0  9991
2 42841  97.3990 354.5021 0003084 351.8183   8.3009 15.33923288488635
LEMUR-2-DEMBITZ         
1 42842U 17042T   26169.47378497  .00012373  00000+0  42389-3 0  9991
2 42842  97.3825 351.0690 0006625  24.6054 335.5501 15.30325732488542
LEMUR-2-ZACHARY         
1 42845U 17042W   26169.48093316  .00035114  00000+0  61851-3 0  9992
2 42845  97.3591   1.1445 0002786  28.0577 332.0824 15.50356452489409
LEMUR-2-AMANDA-SVANTE   
1 48269U 21034B   26169.46617048  .00024235  00000+0  72936-3 0  9994
2 48269  97.5757 247.7855 0002492 203.0789 157.0342 15.34359497281255
LEMUR-2-SPECIAL-K       
1 48273U 21034F   26169.49244252  .00126097  00000+0  12800-2 0  9997
2 48273  97.5651 256.4445 0004487 228.2243 131.8633 15.64790945281898
LEMUR-2-EMBRIONOVIS     
1 56970U 23084AQ  26168.33188497  .00010473  00000+0  28630-3 0  9996
2 56970  97.6296 312.5361 0007732 319.5567  40.5101 15.37551092167704
LEMUR-2-DEVERILL-M-T    
1 57391U 23100F   26169.59948445  .00021208  00000+0  53654-3 0  9991
2 57391  99.4465 208.7650 0006120  46.1145 314.0599 15.39812447161465
LEMUR-2-BASS            
1 58259U 23174D   26169.18296101  .00013800  00000+0  31336-3 0  9998
2 58259  97.3847 253.9091 0007799 159.0416 201.1152 15.43121996145515
LEMUR-2-JK0903EM1407    
1 58336U 23174CJ  26169.49798949  .00021247  00000+0  35748-3 0  9990
2 58336  97.3921 260.0046 0005722 116.7088 243.4751 15.51737446145934
LEMUR-2-MJR092620       
1 58340U 23174CN  26169.51896854  .00015336  00000+0  32763-3 0  9998
2 58340  97.3974 259.5722 0007116 113.7449 246.4547 15.44915529145857
LEMUR-2-NIMBUS2000      
1 58899U 24022A   26169.37834168  .00013207  00000+0  33208-3 0  9994
2 58899  97.4103  19.3941 0010366 112.2621 247.9726 15.40027196132450
LEMUR-2-VALHALLA        
1 58900U 24022B   26169.37481145  .00012409  00000+0  31547-3 0  9997
2 58900  97.4102  19.3805 0010880 108.4761 251.7668 15.39701639132451
LEMUR-2-CAEL            
1 58903U 24022E   26169.31869800  .00013937  00000+0  33935-3 0  9992
2 58903  97.4083  20.2616 0009252  94.1436 266.0868 15.41005260132512
LEMUR-2-JOHNNYTRUONG    
1 59146U 24043BA  26168.98366780  .00032990  00000+0  40067-3 0  9990
2 59146  97.5384 320.7354 0004841 173.9857 186.1459 15.60518881128169
LEMUR-2-TOMATOKECHUP    
1 60471U 24149D   26169.47536920  .00008750  00000+0  25148-3 0  9990
2 60471  97.3799 251.5254 0001578 173.4213 186.7052 15.36055818102363
LEMUR-2-STELLA          
1 60533U 24149BT  26169.53788787  .00008277  00000+0  48796-3 0  9994
2 60533  97.6734 251.9987 0001607  96.2198 263.9215 15.11833501100709
LEMUR-2-MARHISYAM       
1 60536U 24149BW  26169.58490682  .00008978  00000+0  53697-3 0  9990
2 60536  97.6878 252.4962 0003242 116.0177 244.1387 15.11283855100695
LEMUR-2-AHMED-ASRAR     
1 60576U 24149DN  26169.22082142  .00008634  00000+0  49630-3 0  9994
2 60576  97.7006 254.2272 0001800  42.4365 317.7005 15.12732689100729
LEMUR-2-LLOYD           
1 60577U 24149DP  26169.50087884  .00008248  00000+0  52171-3 0  9999
2 60577  97.6748 250.6303 0004900 137.3235 222.8375 15.09260726100596
LEMUR-2-SQUIRRELCOMM    
1 60578U 24149DQ  26169.45048386  .00004944  00000+0  33284-3 0  9991
2 60578  97.6706 250.3576 0006196  57.4751 302.7074 15.07160374100594
LEMUR-2-SIERRINI        
1 60579U 24149DR  26169.47627584  .00007960  00000+0  48060-3 0  9996
2 60579  97.6840 252.0741 0005976 160.6436 199.5021 15.10968434100657
LEMUR-2-WILSON          
1 62694U 25009CP  26169.16578314  .00002327  00000+0  21710-3 0  9999
2 62694  97.7025 247.6131 0004234  56.6184 303.5442 14.95169543 77503
LEMUR-2-STAR-FOX        
1 62696U 25009CR  26169.49131511  .00006050  00000+0  45978-3 0  9990
2 62696  97.6954 251.0905 0003995 108.1842 251.9818 15.02520141 77754
LEMUR-2-ARIANNA         
1 62699U 25009CU  26169.48967054  .00006162  00000+0  46842-3 0  9996
2 62699  97.6893 250.8626 0004363 113.6023 246.5661 15.02501949 77759
LEMUR-2-ALISIA          
1 62706U 25009DB  26169.46733310  .00005360  00000+0  40513-3 0  9997
2 62706  97.6946 251.6287 0002143 190.7634 169.3546 15.02782185100357
